NORAD_CAT_ID,OBJECT_NAME,OBJECT_TYPE,EPOCH,MEAN_MOTION,ECCENTRICITY,INCLINATION,RA_OF_ASC_NODE,ARG_OF_PERICENTER,MEAN_ANOMALY,BSTAR,MEAN_MOTION_DOT,MEAN_MOTION_DDOT,TLE_LINE0,TLE_LINE1,TLE_LINE2,SEMIMAJOR_AXIS,PERIOD,APOGEE,PERIGEE,DECAYED
51873.0,STARLINK-3582,PAYLOAD,2023-07-08 08:26:31,15.08837945,0.000109,53.2182,67.588,83.4551,276.6565,-2.4142e-05,-6.72e-06,0.0,0 STARLINK-3582,1 51873U 22022X   23189.35174971 -.00000672  00000-0 -24142-4 0  9996,2 51873  53.2182  67.5880 0001090  83.4551 276.6565 15.08837945 75871,6917.887,95.438,540.506,538.998,0.0
51873.0,STARLINK-3582,PAYLOAD,2023-07-08 19:34:13,15.08828928,9.8e-05,53.2176,65.5067,89.7797,270.3307,-3.5334e-05,-8.5e-06,0.0,0 STARLINK-3582,1 51873U 22022X   23189.81543753 -.00000850  00000-0 -35334-4 0  9998,2 51873  53.2176  65.5067 0000980  89.7797 270.3307 15.08828928 75941,6917.914,95.438,540.457,539.101,0.0
51873.0,STARLINK-3582,PAYLOAD,2023-07-09 01:55:45,15.08839148,0.0001122,53.2181,64.3197,93.8886,266.2234,-1.2562e-05,-4.88e-06,0.0,0 STARLINK-3582,1 51873U 22022X   23190.08039075 -.00000488  00000-0 -12562-4 0  9991,2 51873  53.2181  64.3197 0001122  93.8886 266.2234 15.08839148 75985,6917.883,95.438,540.524,538.972,0.0
51873.0,STARLINK-3582,PAYLOAD,2023-07-10 08:08:05,15.08838389,9.87e-05,53.218,58.6699,88.6543,271.4562,-3.1195e-05,-7.84e-06,0.0,0 STARLINK-3582,1 51873U 22022X   23191.33895531 -.00000784  00000-0 -31195-4 0  9999,2 51873  53.2180  58.6699 0000987  88.6543 271.4562 15.08838389 76177,6917.885,95.438,540.433,539.068,0.0
51873.0,STARLINK-3582,PAYLOAD,2023-07-11 00:01:56,15.08843759,9.82e-05,53.2179,55.697,93.4544,266.6561,7.7987e-05,9.54e-06,0.0,0 STARLINK-3582,1 51873U 22022X   23192.00135018  .00000954  00000-0  77987-4 0  9997,2 51873  53.2179  55.6970 0000982  93.4544 266.6561 15.08843759 76277,6917.869,95.437,540.413,539.055,0.0
51873.0,STARLINK-3582,PAYLOAD,2023-07-11 23:52:43,15.08841143,9.68e-05,53.2181,51.2363,90.482,269.6283,3.4916e-05,2.68e-06,0.0,0 STARLINK-3582,1 51873U 22022X   23192.99495282  .00000268  00000-0  34916-4 0  9990,2 51873  53.2181  51.2363 0000968  90.4820 269.6283 15.08841143 76422,6917.877,95.437,540.412,539.072,0.0
51873.0,STARLINK-3582,PAYLOAD,2023-07-12 07:49:40,15.08837021,0.0001275,53.2179,49.7487,82.455,277.6587,-3.4598e-06,-3.43e-06,0.0,0 STARLINK-3582,1 51873U 22022X   23193.32615808 -.00000343  00000-0 -34598-5 0  9999,2 51873  53.2179  49.7487 0001275  82.4550 277.6587 15.08837021 76472,6917.889,95.438,540.637,538.872,0.0
51873.0,STARLINK-3582,PAYLOAD,2023-07-13 17:12:45,15.08836893,0.0001015,53.2176,43.5042,98.3322,261.7785,-1.4994e-05,-5.26e-06,0.0,0 STARLINK-3582,1 51873U 22022X   23194.71719778 -.00000526  00000-0 -14994-4 0  9994,2 51873  53.2176  43.5042 0001015  98.3322 261.7785 15.08836893 76686,6917.89,95.438,540.457,539.053,0.0
51873.0,STARLINK-3582,PAYLOAD,2023-07-13 20:23:31,15.08843862,0.0001102,53.2181,42.909,91.6062,268.5056,-1.6468e-05,-5.5e-06,0.0,0 STARLINK-3582,1 51873U 22022X   23194.84967410 -.00000550  00000-0 -16468-4 0  9991,2 51873  53.2181  42.9090 0001102  91.6062 268.5056 15.08843862 76705,6917.869,95.437,540.496,538.971,0.0
51873.0,STARLINK-3582,PAYLOAD,2023-07-14 23:25:04,15.08844121,0.0001198,53.219,37.853,84.414,275.6989,8.3412e-05,1.04e-05,0.0,0 STARLINK-3582,1 51873U 22022X   23195.97575011  .00001040  00000-0  83412-4 0  9994,2 51873  53.2190  37.8530 0001198  84.4140 275.6989 15.08844121 76870,6917.868,95.437,540.562,538.904,0.0
51873.0,STARLINK-3582,PAYLOAD,2023-07-15 16:54:20,15.08831558,0.0001007,53.219,34.5851,75.7095,284.4009,-3.4133e-06,-3.42e-06,0.0,0 STARLINK-3582,1 51873U 22022X   23196.70440199 -.00000342  00000-0 -34133-5 0  9997,2 51873  53.2190  34.5851 0001007  75.7095 284.4009 15.08831558 76984,6917.906,95.438,540.468,539.075,0.0
51873.0,STARLINK-3582,PAYLOAD,2023-07-16 19:55:53,15.08844718,0.0001139,53.2189,29.5293,100.3625,259.7496,-6.2636e-05,-1.285e-05,0.0,0 STARLINK-3582,1 51873U 22022X   23197.83047840 -.00001285  00000-0 -62636-4 0  9993,2 51873  53.2189  29.5293 0001139 100.3625 259.7496 15.08844718 77153,6917.866,95.437,540.519,538.943,0.0
51873.0,STARLINK-3582,PAYLOAD,2023-07-18 11:40:32,15.08834883,0.0001007,53.2195,22.0968,83.1919,276.9188,5.8019e-05,6.36e-06,0.0,0 STARLINK-3582,1 51873U 22022X   23199.48648313  .00000636  00000-0  58019-4 0  9995,2 51873  53.2195  22.0968 0001007  83.1919 276.9188 15.08834883 77404,6917.896,95.438,540.458,539.064,0.0
51873.0,STARLINK-3582,PAYLOAD,2023-07-19 17:52:52,15.08834386,0.00011,53.2193,16.446,77.5922,282.5193,-7.1097e-05,-1.419e-05,0.0,0 STARLINK-3582,1 51873U 22022X   23200.74505197 -.00001419  00000-0 -71097-4 0  9992,2 51873  53.2193  16.4460 0001100  77.5922 282.5193 15.08834386 77598,6917.898,95.438,540.524,539.002,0.0
51873.0,STARLINK-3582,PAYLOAD,2023-07-20 17:43:38,15.08855619,9.54e-05,53.2189,11.9857,78.9562,281.1538,-1.9402e-05,-5.97e-06,0.0,0 STARLINK-3582,1 51873U 22022X   23201.73863675 -.00000597  00000-0 -19402-4 0  9998,2 51873  53.2189  11.9857 0000954  78.9562 281.1538 15.08855619 77741,6917.833,95.437,540.358,539.038,0.0
51873.0,STARLINK-3582,PAYLOAD,2023-07-21 11:12:53,15.08834043,0.0001007,53.2188,8.717,70.0531,290.057,0.00013392,1.844e-05,0.0,0 STARLINK-3582,1 51873U 22022X   23202.46728475  .00001844  00000-0  13392-3 0  9992,2 51873  53.2188   8.7170 0001007  70.0531 290.0570 15.08834043 77856,6917.899,95.438,540.46,539.067,0.0
51873.0,STARLINK-3582,PAYLOAD,2023-07-23 10:54:27,15.0883698,0.0001386,53.2183,359.7907,110.0123,250.1018,-2.6767e-06,-3.31e-06,0.0,0 STARLINK-3582,1 51873U 22022X   23204.45448821 -.00000331  00000-0 -26767-5 0  9991,2 51873  53.2183 359.7907 0001386 110.0123 250.1018 15.08836980 78150,6917.89,95.438,540.713,538.796,0.0
51873.0,STARLINK-3582,PAYLOAD,2023-07-25 10:36:02,15.0883906,5.85e-05,53.2259,350.8765,349.079,11.0189,3.3411e-05,2.44e-06,0.0,0 STARLINK-3582,1 51873U 22022X   23206.44169034  .00000244  00000-0  33411-4 0  9992,2 51873  53.2259 350.8765 0000585 349.0790  11.0189 15.08839060 78450,6917.883,95.438,540.153,539.344,0.0
51873.0,STARLINK-3582,PAYLOAD,2023-07-26 08:51:26,15.08837366,8.14e-05,53.2188,346.7082,97.4479,262.6605,1.5101e-05,-4.7e-07,0.0,0 STARLINK-3582,1 51873U 22022X   23207.36905187 -.00000047  00000-0  15101-4 0  9999,2 51873  53.2188 346.7082 0000814  97.4479 262.6605 15.08837366 78599,6917.888,95.438,540.317,539.19,0.0
51873.0,STARLINK-3582,PAYLOAD,2023-07-27 02:20:40,15.08838823,0.000149,53.219,343.4379,73.4573,286.6582,5.3581e-05,5.65e-06,0.0,0 STARLINK-3582,1 51873U 22022X   23208.09769130  .00000565  00000-0  53581-4 0  9994,2 51873  53.2190 343.4379 0001490  73.4573 286.6582 15.08838823 78707,6917.884,95.438,540.78,538.718,0.0
51873.0,STARLINK-3582,PAYLOAD,2023-07-27 08:42:14,15.08823191,9.2e-05,53.2189,342.2481,76.9658,283.1437,-9.1317e-05,-1.74e-05,0.0,0 STARLINK-3582,1 51873U 22022X   23208.36266448 -.00001740  00000-0 -91317-4 0  9995,2 51873  53.2189 342.2481 0000920  76.9658 283.1437 15.08823191 78742,6917.932,95.439,540.433,539.16,0.0
51873.0,STARLINK-3582,PAYLOAD,2023-07-27 15:03:46,15.08828181,0.0001001,53.2186,341.0602,64.082,296.0276,-2.6055e-05,-7.02e-06,0.0,0 STARLINK-3582,1 51873U 22022X   23208.62762075 -.00000702  00000-0 -26055-4 0  9995,2 51873  53.2186 341.0602 0001001  64.0820 296.0276 15.08828181 78783,6917.917,95.438,540.474,539.089,0.0
51873.0,STARLINK-3582,PAYLOAD,2023-07-28 08:33:00,15.088367,0.0001681,53.2186,337.7907,77.9845,282.1336,3.9707e-06,-2.25e-06,0.0,0 STARLINK-3582,1 51873U 22022X   23209.35625747 -.00000225  00000-0  39707-5 0  9998,2 51873  53.2186 337.7907 0001681  77.9845 282.1336 15.08836700 78898,6917.89,95.438,540.918,538.593,0.0
51873.0,STARLINK-3582,PAYLOAD,2023-07-28 14:54:32,15.08853046,9.77e-05,53.2168,336.5988,55.1175,304.9909,5.0798e-05,5.21e-06,0.0,0 STARLINK-3582,1 51873U 22022X   23209.62120460  .00000521  00000-0  50798-4 0  9990,2 51873  53.2168 336.5988 0000977  55.1175 304.9909 15.08853046 78931,6917.841,95.437,540.381,539.03,0.0
51873.0,STARLINK-3582,PAYLOAD,2023-07-29 08:23:47,15.08834439,0.0001071,53.2173,333.3287,59.0937,301.016,0.00014748,2.06e-05,0.0,0 STARLINK-3582,1 51873U 22022X   23210.34985146  .00002060  00000-0  14748-3 0  9995,2 51873  53.2173 333.3287 0001071  59.0937 301.0160 15.08834439 79044,6917.897,95.438,540.503,539.021,0.0
51873.0,STARLINK-3582,PAYLOAD,2023-07-29 17:56:05,15.08843437,9.84e-05,53.2169,331.542,75.7504,284.3597,0.00015776,2.224e-05,0.0,0 STARLINK-3582,1 51873U 22022X   23210.74728583  .00002224  00000-0  15776-3 0  9993,2 51873  53.2169 331.5420 0000984  75.7504 284.3597 15.08843437 79107,6917.87,95.437,540.416,539.054,0.0
51873.0,STARLINK-3582,PAYLOAD,2023-07-30 08:14:34,15.08842095,0.0001385,53.2169,328.8669,73.1538,286.9605,-3.7728e-05,-8.88e-06,0.0,0 STARLINK-3582,1 51873U 22022X   23211.34345445 -.00000888  00000-0 -37728-4 0  9990,2 51873  53.2169 328.8669 0001385  73.1538 286.9605 15.08842095 79192,6917.874,95.437,540.697,538.781,0.0
51873.0,STARLINK-3582,PAYLOAD,2023-07-31 08:05:22,15.08832943,9.88e-05,53.2188,324.4077,90.0475,270.063,-6.8978e-05,-1.385e-05,0.0,0 STARLINK-3582,1 51873U 22022X   23212.33706094 -.00001385  00000-0 -68978-4 0  9995,2 51873  53.2188 324.4077 0000988  90.0475 270.0630 15.08832943 79344,6917.902,95.438,540.45,539.083,0.0
51873.0,STARLINK-3582,PAYLOAD,2023-08-01 17:28:26,15.08846935,8.69e-05,53.2181,318.1639,73.8193,286.2895,0.00016861,2.397e-05,0.0,0 STARLINK-3582,1 51873U 22022X   23213.72808813  .00002397  00000-0  16861-3 0  9996,2 51873  53.2181 318.1639 0000869  73.8193 286.2895 15.08846935 79556,6917.859,95.437,540.325,539.123,0.0
51873.0,STARLINK-3582,PAYLOAD,2023-08-02 07:46:56,15.08828394,6.38e-05,53.2184,315.4884,59.303,300.8025,4.9487e-05,5e-06,0.0,0 STARLINK-3582,1 51873U 22022X   23214.32426519  .00000500  00000-0  49487-4 0  9997,2 51873  53.2184 315.4884 0000638  59.3030 300.8025 15.08828394 79641,6917.916,95.438,540.222,539.34,0.0
